$$SOE
2461295.500000000, A.D. 2026-Sep-12 00:00:00.0000, -3.032852069478285E+08, 4.770838526421484E+07, -3.871266376274455E+06,
2461302.500000000, A.D. 2026-Sep-19 00:00:00.0000, -3.049527046884636E+08, 3.487719155758385E+07, -4.530693548583977E+06,
2461309.500000000, A.D. 2026-Sep-26 00:00:00.0000, -3.061085419040284E+08, 2.198754695221259E+07, -5.182516030952461E+06,
2461316.500000000, A.D. 2026-Oct-03 00:00:00.0000, -3.067506128835940E+08, 9.061060093261274E+06, -5.825637286562569E+06,
2461323.500000000, A.D. 2026-Oct-10 00:00:00.0000, -3.068778331799158E+08, -3.880579897353274E+06, -6.458977762601910E+06,
2461330.500000000, A.D. 2026-Oct-17 00:00:00.0000, -3.064901424920084E+08, -1.681566000182481E+07, -7.081477703579775E+06,
2461337.500000000, A.D. 2026-Oct-24 00:00:00.0000, -3.055885037113096E+08, -2.972250001899610E+07, -7.692099895350279E+06,
2461344.500000000, A.D. 2026-Oct-31 00:00:00.0000, -3.041748980482467E+08, -4.257950915886237E+07, -8.289832339089686E+06,
2461351.500000000, A.D. 2026-Nov-07 00:00:00.0000, -3.022523159464654E+08, -5.536524213189323E+07, -8.873690865753863E+06,
2461358.500000000, A.D. 2026-Nov-14 00:00:00.0000, -2.998247436591138E+08, -6.805845353949288E+07, -9.442721623204295E+06,
2461365.500000000, A.D. 2026-Nov-21 00:00:00.0000, -2.968971474019402E+08, -8.063814958882284E+07, -9.996003201500352E+06,
2461372.500000000, A.D. 2026-Nov-28 00:00:00.0000, -2.934754562151654E+08, -9.308363986127335E+07, -1.053264853987271E+07,
2461379.500000000, A.D. 2026-Dec-05 00:00:00.0000, -2.895665400796247E+08, -1.053745895271966E+08, -1.105180699184099E+07,
2461386.500000000, A.D. 2026-Dec-12 00:00:00.0000, -2.851781833060130E+08, -1.174910686450756E+08, -1.155266630038503E+07,
2461393.500000000, A.D. 2026-Dec-19 00:00:00.0000, -2.803190552798252E+08, -1.294135983086993E+08, -1.203445430113974E+07,
2461400.500000000, A.D. 2026-Dec-26 00:00:00.0000, -2.749986789184611E+08, -1.411231943101949E+08, -1.249644040567932E+07,
2461407.500000000, A.D. 2027-Jan-02 00:00:00.0000, -2.692273968020886E+08, -1.526014083368229E+08, -1.293793690271788E+07,
2461414.500000000, A.D. 2027-Jan-09 00:00:00.0000, -2.630163351137819E+08, -1.638303665305226E+08, -1.335830008443183E+07,
2461421.500000000, A.D. 2027-Jan-16 00:00:00.0000, -2.563773656127279E+08, -1.747928052750540E+08, -1.375693119946890E+07,
2461428.500000000, A.D. 2027-Jan-23 00:00:00.0000, -2.493230658584276E+08, -1.854721041517507E+08, -1.413327724065429E+07,
2461435.500000000, A.D. 2027-Jan-30 00:00:00.0000, -2.418666777662194E+08, -1.958523160409351E+08, -1.448683159078799E+07,
2461442.500000000, A.D. 2027-Feb-06 00:00:00.0000, -2.340220643395377E+08, -2.059181939841791E+08, -1.481713454144722E+07,
2461449.500000000, A.D. 2027-Feb-13 00:00:00.0000, -2.258036653075961E+08, -2.156552135652535E+08, -1.512377354752980E+07,
2461456.500000000, A.D. 2027-Feb-20 00:00:00.0000, -2.172264542931721E+08, -2.250495915975330E+08, -1.540638307029907E+07,
2461463.500000000, A.D. 2027-Feb-27 00:00:00.0000, -2.083058963638897E+08, -2.340883043488636E+08, -1.566464440465184E+07,
2461470.500000000, A.D. 2027-Mar-06 00:00:00.0000, -1.990579031837345E+08, -2.427591034211595E+08, -1.589828561559708E+07,
2461477.500000000, A.D. 2027-Mar-13 00:00:00.0000, -1.894987875833361E+08, -2.510505273001522E+08, -1.610708127634472E+07,
2461484.500000000, A.D. 2027-Mar-20 00:00:00.0000, -1.796452188871012E+08, -2.589519095017716E+08, -1.629085198212397E+07,
2461491.500000000, A.D. 2027-Mar-27 00:00:00.0000, -1.695141789991947E+08, -2.664533839756749E+08, -1.644946371476881E+07,
2461498.500000000, A.D. 2027-Apr-03 00:00:00.0000, -1.591229192400571E+08, -2.735458879363198E+08, -1.658282709250721E+07,
2461505.500000000, A.D. 2027-Apr-10 00:00:00.0000, -1.484889180512495E+08, -2.802211622284933E+08, -1.669089651956478E+07,
2461512.500000000, A.D. 2027-Apr-17 00:00:00.0000, -1.376298397060156E+08, -2.864717493771164E+08, -1.677366924833004E+07,
2461519.500000000, A.D. 2027-Apr-24 00:00:00.0000, -1.265634940844906E+08, -2.922909895248281E+08, -1.683118437536542E+07,
2461526.500000000, A.D. 2027-May-01 00:00:00.0000, -1.153077973323798E+08, -2.976730143778017E+08, -1.686352180555458E+07,
2461533.500000000, A.D. 2027-May-08 00:00:00.0000, -1.038807331973157E+08, -3.026127385654705E+08, -1.687080116074950E+07,
2461540.500000000, A.D. 2027-May-15 00:00:00.0000, -9.230031662572205E+07, -3.071058476169571E+08, -1.685318042700930E+07,
2461547.500000000, A.D. 2027-May-22 00:00:00.0000, -8.058456125379910E+07, -3.111487853020251E+08, -1.681085441802748E+07,
2461554.500000000, A.D. 2027-May-29 00:00:00.0000, -6.875144749223307E+07, -3.147387419631177E+08, -1.674405349169599E+07,
2461561.500000000, A.D. 2027-Jun-05 00:00:00.0000, -5.681889036389361E+07, -3.178736408639921E+08, -1.665304235340297E+07,
2461568.500000000, A.D. 2027-Jun-12 00:00:00.0000, -4.480470913272160E+07, -3.205521222727857E+08, -1.653811873378181E+07,
2461575.500000000, A.D. 2027-Jun-19 00:00:00.0000, -3.272659907032136E+07, -3.227735263565056E+08, -1.639961199313010E+07,
2461582.500000000, A.D. 2027-Jun-26 00:00:00.0000, -2.060210508175763E+07, -3.245378752845003E+08, -1.623788170514406E+07,
2461589.500000000, A.D. 2027-Jul-03 00:00:00.0000, -8.448597045722835E+06, -3.258458546646941E+08, -1.605331623718733E+07,
2461596.500000000, A.D. 2027-Jul-10 00:00:00.0000, 3.716753192009506E+06, -3.266987944344305E+08, -1.584633133612370E+07,
2461603.500000000, A.D. 2027-Jul-17 00:00:00.0000, 1.587699323921114E+07, -3.270986493750107E+08, -1.561736873280630E+07,
2461610.500000000, A.D. 2027-Jul-24 00:00:00.0000, 2.801541018204231E+07, -3.270479794382364E+08, -1.536689479061173E+07,
2461617.500000000, A.D. 2027-Jul-31 00:00:00.0000, 4.011554966243392E+07, -3.265499297646475E+08, -1.509539922132210E+07,
2461624.500000000, A.D. 2027-Aug-07 00:00:00.0000, 5.216123384940982E+07, -3.256082093449123E+08, -1.480339375966841E+07,
2461631.500000000, A.D. 2027-Aug-14 00:00:00.0000, 6.413657605117568E+07, -3.242270686686354E+08, -1.449141060932162E+07,
2461638.500000000, A.D. 2027-Aug-21 00:00:00.0000, 7.602599264083409E+07, -3.224112798051895E+08, -1.416000099476828E+07,
2461645.500000000, A.D. 2027-Aug-28 00:00:00.0000, 8.781421578724585E+07, -3.201661177893212E+08, -1.380973403803308E+07,
2461652.500000000, A.D. 2027-Sep-04 00:00:00.0000, 9.948630587238686E+07, -3.174973408809595E+08, -1.344119564960487E+07,
2461659.500000000, A.D. 2027-Sep-11 00:00:00.0000, 1.110276622633501E+08, -3.144111704241079E+08, -1.305498736140861E+07,
2461666.500000000, A.D. 2027-Sep-18 00:00:00.0000, 1.224240326369978E+08, -3.109142710106918E+08, -1.265172516865899E+07,
2461673.500000000, A.D. 2027-Sep-25 00:00:00.0000, 1.336615211515111E+08, -3.070137310760391E+08, -1.223203840913305E+07,
2461680.500000000, A.D. 2027-Oct-02 00:00:00.0000, 1.447265956046703E+08, -3.027170439406245E+08, -1.179656868542457E+07,
2461687.500000000, A.D. 2027-Oct-09 00:00:00.0000, 1.556060936655883E+08, -2.980320893369698E+08, -1.134596883340304E+07,
2461694.500000000, A.D. 2027-Oct-16 00:00:00.0000, 1.662872283086990E+08, -2.929671155043699E+08, -1.088090194785197E+07,
2461701.500000000, A.D. 2027-Oct-23 00:00:00.0000, 1.767575927772414E+08, -2.875307218824389E+08, -1.040204048990531E+07,
2461708.500000000, A.D. 2027-Oct-30 00:00:00.0000, 1.870051655168033E+08, -2.817318418175986E+08, -9.910065460494950E+06,
2461715.500000000, A.D. 2027-Nov-06 00:00:00.0000, 1.970183139770651E+08, -2.755797241749257E+08, -9.405665440248534E+06,
2461722.500000000, A.D. 2027-Nov-13 00:00:00.0000, 2.067857953531674E+08, -2.690839159446346E+08, -8.889535482637957E+06,
2461729.500000000, A.D. 2027-Nov-20 00:00:00.0000, 2.162967572224280E+08, -2.622542480350881E+08, -8.362376304240495E+06,
2461736.500000000, A.D. 2027-Nov-27 00:00:00.0000, 2.255407397453529E+08, -2.551008212910861E+08, -7.824893676948294E+06,
2461743.500000000, A.D. 2027-Dec-04 00:00:00.0000, 2.345076774541540E+08, -2.476339918215869E+08, -7.277797760506973E+06,
2461750.500000000, A.D. 2027-Dec-11 00:00:00.0000, 2.431879001236515E+08, -2.398643565903421E+08, -6.721802402715281E+06,
2461757.500000000, A.D. 2027-Dec-18 00:00:00.0000, 2.515721330496823E+08, -2.318027395943561E+08, -6.157624459626362E+06,
2461764.500000000, A.D. 2027-Dec-25 00:00:00.0000, 2.596514969415474E+08, -2.234601786221772E+08, -5.585983149064228E+06,
2461771.500000000, A.D. 2028-Jan-01 00:00:00.0000, 2.674175075220192E+08, -2.148479125731671E+08, -5.007599438592777E+06,
$$EOE